{"type": "FeatureCollection", "features": [ {"type": "Feature", "properties": {"norad_id": 34058, "name": "COSMOS 2251 DEB", "group": "cosmos-2251-debris", "lat": 28.525289659681174, "lon": -178.55235372257684, "alt_km": 1248.849422002826, "timestamp": "2025-12-16T05:49:09.606924+00:00", "meta": {"OBJECT_NAME": "COSMOS 2251 DEB", "OBJECT_ID": "1993-036JV", "EPOCH": "2025-12-15T23:10:13.210752", "MEAN_MOTION": 13.56081023, "ECCENTRICITY": 0.03778067, "INCLINATION": 73.9313, "RA_OF_ASC_NODE": 172.8839, "ARG_OF_PERICENTER": 167.5092, "MEAN_ANOMALY": 313.4046, "EPHEMERIS_TYPE": 0, "CLASSIFICATION_TYPE": "U", "NORAD_CAT_ID": 34058, "ELEMENT_SET_NO": 999, "REV_AT_EPOCH": 83186, "BSTAR": 0.00068241044, "MEAN_MOTION_DOT": 7.37e-06, "MEAN_MOTION_DDOT": 0}, "tle": {"line1": "1 34058U 93036JV  25349.96543068  .00000737  00000+0  68241-3 0  9995", "line2": "2 34058  73.9313 172.8839 0377806 167.5092 313.4046 13.56081023831863"}}, "geometry": {"type": "Point", "coordinates": [-178.55235372257684, 28.525289659681174]}}, {"type": "Feature", "properties": {"norad_id": 34059, "name": "COSMOS 2251 DEB", "group": "cosmos-2251-debris", "lat": 32.621037039874565, "lon": -169.77482180961633, "alt_km": 723.384417252546, "timestamp": "2025-12-16T05:49:09.606934+00:00", "meta": {"OBJECT_NAME": "COSMOS 2251 DEB", "OBJECT_ID": "1993-036JW", "EPOCH": "2025-12-15T21:58:00.024384", "MEAN_MOTION": 14.52966471, "ECCENTRICITY": 0.00185584, "INCLINATION": 74.0369, "RA_OF_ASC_NODE": 180.2858, "ARG_OF_PERICENTER": 257.2795, "MEAN_ANOMALY": 226.0241, "EPHEMERIS_TYPE": 0, "CLASSIFICATION_TYPE": "U", "NORAD_CAT_ID": 34059, "ELEMENT_SET_NO": 999, "REV_AT_EPOCH": 88505, "BSTAR": 0.00056653114, "MEAN_MOTION_DOT": 2.314e-05, "MEAN_MOTION_DDOT": 0}, "tle": {"line1": "1 34059U 93036JW  25349.91527806  .00002314  00000+0  56653-3 0  9990", "line2": "2 34059  74.0369 180.2858 0018558 257.2795 226.0241 14.52966471885056"}}, "geometry": {"type": "Point", "coordinates": [-169.77482180961633, 32.621037039874565]}}, {"type": "Feature", "properties": {"norad_id": 34061, "name": "COSMOS 2251 DEB", "group": "cosmos-2251-debris", "lat": -40.236297688284836, "lon": 90.92916093866579, "alt_km": 768.7346833047277, "timestamp": "2025-12-16T05:49:09.606944+00:00", "meta": {"OBJECT_NAME": "COSMOS 2251 DEB", "OBJECT_ID": "1993-036JY", "EPOCH": "2025-12-15T19:03:03.479328", "MEAN_MOTION": 14.40364198, "ECCENTRICITY": 0.00206284, "INCLINATION": 74.0391, "RA_OF_ASC_NODE": 257.744, "ARG_OF_PERICENTER": 334.1778, "MEAN_ANOMALY": 82.5464, "EPHEMERIS_TYPE": 0, "CLASSIFICATION_TYPE": "U", "NORAD_CAT_ID": 34061, "ELEMENT_SET_NO": 999, "REV_AT_EPOCH": 88224, "BSTAR": 0.00031694833, "MEAN_MOTION_DOT": 9.82e-06, "MEAN_MOTION_DDOT": 0}, "tle": {"line1": "1 34061U 93036JY  25349.79379027  .00000982  00000+0  31695-3 0  9997", "line2": "2 34061  74.0391 257.7440 0020628 334.1778  82.5464 14.40364198882243"}}, "geometry": {"type": "Point", "coordinates": [90.92916093866579, -40.236297688284836]}}, {"type": "Feature", "properties": {"norad_id": 34062, "name": "COSMOS 2251 DEB", "group": "cosmos-2251-debris", "lat": 67.92120374631229, "lon": -93.77337702555954, "alt_km": 638.4223736703034, "timestamp": "2025-12-16T05:49:09.606955+00:00", "meta": {"OBJECT_NAME": "COSMOS 2251 DEB", "OBJECT_ID": "1993-036JZ", "EPOCH": "2025-12-15T18:16:26.255136", "MEAN_MOTION": 14.78793669, "ECCENTRICITY": 0.0074199, "INCLINATION": 74.0275, "RA_OF_ASC_NODE": 132.0921, "ARG_OF_PERICENTER": 210.562, "MEAN_ANOMALY": 215.745, "EPHEMERIS_TYPE": 0, "CLASSIFICATION_TYPE": "U", "NORAD_CAT_ID": 34062, "ELEMENT_SET_NO": 999, "REV_AT_EPOCH": 88640, "BSTAR": 0.0019952756, "MEAN_MOTION_DOT": 0.00015365, "MEAN_MOTION_DDOT": 0}, "tle": {"line1": "1 34062U 93036JZ  25349.76141499  .00015365  00000+0  19953-2 0  9998", "line2": "2 34062  74.0275 132.0921 0074199 210.5620 215.7450 14.78793669886406"}}, "geometry": {"type": "Point", "coordinates": [-93.77337702555954, 67.92120374631229]}}, {"type": "Feature", "properties": {"norad_id": 34064, "name": "COSMOS 2251 DEB", "group": "cosmos-2251-debris", "lat": -38.90433919286392, "lon": 97.7293228358936, "alt_km": 762.1460489558767, "timestamp": "2025-12-16T05:49:09.606964+00:00", "meta": {"OBJECT_NAME": "COSMOS 2251 DEB", "OBJECT_ID": "1993-036KB", "EPOCH": "2025-12-15T18:57:01.369152", "MEAN_MOTION": 14.42349845, "ECCENTRICITY": 0.00222155, "INCLINATION": 74.0329, "RA_OF_ASC_NODE": 265.2097, "ARG_OF_PERICENTER": 331.3258, "MEAN_ANOMALY": 59.033, "EPHEMERIS_TYPE": 0, "CLASSIFICATION_TYPE": "U", "NORAD_CAT_ID": 34064, "ELEMENT_SET_NO": 999, "REV_AT_EPOCH": 88186, "BSTAR": 0.00041506113, "MEAN_MOTION_DOT": 1.349e-05, "MEAN_MOTION_DDOT": 0}, "tle": {"line1": "1 34064U 93036KB  25349.78959918  .00001349  00000+0  41506-3 0  9992", "line2": "2 34064  74.0329 265.2097 0022215 331.3258  59.0330 14.42349845881867"}}, "geometry": {"type": "Point", "coordinates": [97.7293228358936, -38.90433919286392]}}, {"type": "Feature", "properties": {"norad_id": 34065, "name": "COSMOS 2251 DEB", "group": "cosmos-2251-debris", "lat": -0.3109839800120105, "lon": 71.75840431516, "alt_km": 779.0947919003538, "timestamp": "2025-12-16T05:49:09.606974+00:00", "meta": {"OBJECT_NAME": "COSMOS 2251 DEB", "OBJECT_ID": "1993-036KC", "EPOCH": "2025-12-15T19:13:47.525664", "MEAN_MOTION": 14.38066068, "ECCENTRICITY": 0.00165047, "INCLINATION": 74.0355, "RA_OF_ASC_NODE": 252.4818, "ARG_OF_PERICENTER": 349.4692, "MEAN_ANOMALY": 67.4442, "EPHEMERIS_TYPE": 0, "CLASSIFICATION_TYPE": "U", "NORAD_CAT_ID": 34065, "ELEMENT_SET_NO": 999, "REV_AT_EPOCH": 88249, "BSTAR": 0.00015919514, "MEAN_MOTION_DOT": 4.56e-06, "MEAN_MOTION_DDOT": 0}, "tle": {"line1": "1 34065U 93036KC  25349.80124451  .00000456  00000+0  15920-3 0  9991", "line2": "2 34065  74.0355 252.4818 0016504 349.4692  67.4442 14.38066068882497"}}, "geometry": {"type": "Point", "coordinates": [71.75840431516, -0.3109839800120105]}}, {"type": "Feature", "properties": {"norad_id": 34070, "name": "COSMOS 2251 DEB", "group": "cosmos-2251-debris", "lat": -15.299598771652084, "lon": -66.11552383837105, "alt_km": 631.5283972943653, "timestamp": "2025-12-16T05:49:09.606984+00:00", "meta": {"OBJECT_NAME": "COSMOS 2251 DEB", "OBJECT_ID": "1993-036KH", "EPOCH": "2025-12-15T18:06:31.053312", "MEAN_MOTION": 14.77138978, "ECCENTRICITY": 0.00184306, "INCLINATION": 74.0001, "RA_OF_ASC_NODE": 110.3409, "ARG_OF_PERICENTER": 226.7832, "MEAN_ANOMALY": 255.4571, "EPHEMERIS_TYPE": 0, "CLASSIFICATION_TYPE": "U", "NORAD_CAT_ID": 34070, "ELEMENT_SET_NO": 999, "REV_AT_EPOCH": 88655, "BSTAR": 0.0017448162, "MEAN_MOTION_DOT": 0.00012363, "MEAN_MOTION_DDOT": 0}, "tle": {"line1": "1 34070U 93036KH  25349.75452608  .00012363  00000+0  17448-2 0  9995", "line2": "2 34070  74.0001 110.3409 0018430 226.7832 255.4571 14.77138978886558"}}, "geometry": {"type": "Point", "coordinates": [-66.11552383837105, -15.299598771652084]}}, {"type": "Feature", "properties": {"norad_id": 34114, "name": "COSMOS 2251 DEB", "group": "cosmos-2251-debris", "lat": 34.39221326045068, "lon": -154.08711517689093, "alt_km": 715.3358339174674, "timestamp": "2025-12-16T05:49:09.606994+00:00", "meta": {"OBJECT_NAME": "COSMOS 2251 DEB", "OBJECT_ID": "1993-036KK", "EPOCH": "2025-12-15T13:24:34.761888", "MEAN_MOTION": 14.5642097, "ECCENTRICITY": 0.0047531, "INCLINATION": 74.0598, "RA_OF_ASC_NODE": 38.4897, "ARG_OF_PERICENTER": 32.1099, "MEAN_ANOMALY": 127.8769, "EPHEMERIS_TYPE": 0, "CLASSIFICATION_TYPE": "U", "NORAD_CAT_ID": 34114, "ELEMENT_SET_NO": 999, "REV_AT_EPOCH": 87842, "BSTAR": 0.00098701561, "MEAN_MOTION_DOT": 4.424e-05, "MEAN_MOTION_DDOT": 0}, "tle": {"line1": "1 34114U 93036KK  25349.55873567  .00004424  00000+0  98702-3 0  9995", "line2": "2 34114  74.0598  38.4897 0047531  32.1099 127.8769 14.56420970878428"}}, "geometry": {"type": "Point", "coordinates": [-154.08711517689093, 34.39221326045068]}}, {"type": "Feature", "properties": {"norad_id": 34115, "name": "COSMOS 2251 DEB", "group": "cosmos-2251-debris", "lat": -7.55310667527765, "lon": 57.215165262373645, "alt_km": 647.2963397510712, "timestamp": "2025-12-16T05:49:09.607004+00:00", "meta": {"OBJECT_NAME": "COSMOS 2251 DEB", "OBJECT_ID": "1993-036KL", "EPOCH": "2025-12-15T17:36:58.686912", "MEAN_MOTION": 14.79533708, "ECCENTRICITY": 0.00286481, "INCLINATION": 74.0064, "RA_OF_ASC_NODE": 236.0378, "ARG_OF_PERICENTER": 58.6936, "MEAN_ANOMALY": 301.7038, "EPHEMERIS_TYPE": 0, "CLASSIFICATION_TYPE": "U", "NORAD_CAT_ID": 34115, "ELEMENT_SET_NO": 999, "REV_AT_EPOCH": 89456, "BSTAR": 0.00057535675, "MEAN_MOTION_DOT": 4.302e-05, "MEAN_MOTION_DDOT": 0}, "tle": {"line1": "1 34115U 93036KL  25349.73401258  .00004302  00000+0  57536-3 0  9995", "line2": "2 34115  74.0064 236.0378 0028648  58.6936 301.7038 14.79533708894562"}}, "geometry": {"type": "Point", "coordinates": [57.215165262373645, -7.55310667527765]}}, {"type": "Feature", "properties": {"norad_id": 34116, "name": "COSMOS 2251 DEB", "group": "cosmos-2251-debris", "lat": 3.307428694582256, "lon": -4.7781968964785495, "alt_km": 715.9688895253694, "timestamp": "2025-12-16T05:49:09.607014+00:00", "meta": {"OBJECT_NAME": "COSMOS 2251 DEB", "OBJECT_ID": "1993-036KM", "EPOCH": "2025-12-15T22:58:15.091968", "MEAN_MOTION": 14.52995638, "ECCENTRICITY": 0.00119388, "INCLINATION": 74.0398, "RA_OF_ASC_NODE": 176.7075, "ARG_OF_PERICENTER": 252.7785, "MEAN_ANOMALY": 231.7867, "EPHEMERIS_TYPE": 0, "CLASSIFICATION_TYPE": "U", "NORAD_CAT_ID": 34116, "ELEMENT_SET_NO": 999, "REV_AT_EPOCH": 88533, "BSTAR": 0.00056414113, "MEAN_MOTION_DOT": 2.302e-05, "MEAN_MOTION_DDOT": 0}, "tle": {"line1": "1 34116U 93036KM  25349.95711912  .00002302  00000+0  56414-3 0  9993", "line2": "2 34116  74.0398 176.7075 0011938 252.7785 231.7867 14.52995638885332"}}, "geometry": {"type": "Point", "coordinates": [-4.7781968964785495, 3.307428694582256]}}]}